NORAD_CAT_ID,OBJECT_NAME,OBJECT_TYPE,EPOCH,MEAN_MOTION,ECCENTRICITY,INCLINATION,RA_OF_ASC_NODE,ARG_OF_PERICENTER,MEAN_ANOMALY,BSTAR,MEAN_MOTION_DOT,MEAN_MOTION_DDOT,TLE_LINE0,TLE_LINE1,TLE_LINE2,SEMIMAJOR_AXIS,PERIOD,APOGEE,PERIGEE,DECAYED
51748.0,STARLINK-3501,PAYLOAD,2023-10-10 18:45:24,15.08838506,0.0001666,53.2175,303.6729,100.4448,259.6732,5.8426e-05,6.42e-06,0.0,0 STARLINK-3501,1 51748U 22016AL  23283.78153620  .00000642  00000-0  58426-4 0  9997,2 51748  53.2175 303.6729 0001666 100.4448 259.6732 15.08838506 91783,6917.885,95.438,540.902,538.597,0.0
51748.0,STARLINK-3501,PAYLOAD,2023-10-11 09:03:53,15.08835998,0.0001441,53.2174,300.9984,81.9958,278.1198,3.1218e-05,2.09e-06,0.0,0 STARLINK-3501,1 51748U 22016AL  23284.37770021  .00000209  00000-0  31218-4 0  9992,2 51748  53.2174 300.9984 0001441  81.9958 278.1198 15.08835998 90801,6917.893,95.438,540.754,538.761,0.0
51748.0,STARLINK-3501,PAYLOAD,2023-10-12 00:57:44,15.08835946,0.000151,53.2161,298.0227,85.7478,274.3687,9.4661e-05,1.219e-05,0.0,0 STARLINK-3501,1 51748U 22016AL  23285.04009824  .00001219  00000-0  94661-4 0  9996,2 51748  53.2161 298.0227 0001510  85.7478 274.3687 15.08835946 91973,6917.893,95.438,540.802,538.713,0.0
51748.0,STARLINK-3501,PAYLOAD,2023-10-12 07:19:16,15.08842104,0.0001777,53.2164,296.8323,98.3848,261.7346,0.00011263,1.505e-05,0.0,0 STARLINK-3501,1 51748U 22016AL  23285.30505475  .00001505  00000-0  11263-3 0  9992,2 51748  53.2164 296.8323 0001777  98.3848 261.7346 15.08842104 90947,6917.874,95.437,540.968,538.51,0.0
51748.0,STARLINK-3501,PAYLOAD,2023-10-12 18:26:58,15.08839056,0.0001551,53.216,294.7509,96.9775,263.1394,9.2756e-05,1.188e-05,0.0,0 STARLINK-3501,1 51748U 22016AL  23285.76873728  .00001188  00000-0  92756-4 0  9995,2 51748  53.2160 294.7509 0001551  96.9775 263.1394 15.08839056 91019,6917.883,95.438,540.821,538.675,0.0
51748.0,STARLINK-3501,PAYLOAD,2023-10-13 03:59:17,15.08836681,0.0001592,53.2159,292.9667,97.8427,262.2746,0.00014646,2.043e-05,0.0,0 STARLINK-3501,1 51748U 22016AL  23286.16617853  .00002043  00000-0  14646-3 0  9997,2 51748  53.2159 292.9667 0001592  97.8427 262.2746 15.08836681 92148,6917.891,95.438,540.857,538.654,0.0
51748.0,STARLINK-3501,PAYLOAD,2023-10-13 07:10:04,15.08839545,0.0001643,53.2161,292.3732,92.2514,267.8666,0.00016002,2.26e-05,0.0,0 STARLINK-3501,1 51748U 22016AL  23286.29865790  .00002260  00000-0  16002-3 0  9995,2 51748  53.2161 292.3732 0001643  92.2514 267.8666 15.08839545 91098,6917.882,95.438,540.883,538.61,0.0
51748.0,STARLINK-3501,PAYLOAD,2023-10-14 07:00:50,15.0885064,0.0001664,53.2167,287.9105,99.7228,260.3953,0.00011164,1.49e-05,0.0,0 STARLINK-3501,1 51748U 22016AL  23287.29225024  .00001490  00000-0  11164-3 0  9994,2 51748  53.2167 287.9105 0001664  99.7228 260.3953 15.08850640 92317,6917.848,95.437,540.864,538.562,0.0
51748.0,STARLINK-3501,PAYLOAD,2023-10-15 03:40:53,15.08827405,0.0001634,53.217,284.0464,102.7427,257.3748,-4.7615e-05,-1.045e-05,0.0,0 STARLINK-3501,1 51748U 22016AL  23288.15339263 -.00001045  00000-0 -47615-4 0  9990,2 51748  53.2170 284.0464 0001634 102.7427 257.3748 15.08827405 92445,6917.919,95.438,540.914,538.653,0.0
51748.0,STARLINK-3501,PAYLOAD,2023-10-15 06:51:39,15.08822673,0.0001429,53.2172,283.4509,91.149,268.9666,4.982e-06,-2.09e-06,0.0,0 STARLINK-3501,1 51748U 22016AL  23288.28587574 -.00000209  00000-0  49820-5 0  9995,2 51748  53.2172 283.4509 0001429  91.1490 268.9666 15.08822673 91395,6917.933,95.439,540.787,538.81,0.0
51748.0,STARLINK-3501,PAYLOAD,2023-10-15 16:23:58,15.08832188,0.0001552,53.2173,281.6672,94.5473,265.5696,7.504e-06,-1.69e-06,0.0,0 STARLINK-3501,1 51748U 22016AL  23288.68331168 -.00000169  00000-0  75040-5 0  9993,2 51748  53.2173 281.6672 0001552  94.5473 265.5696 15.08832188 91457,6917.904,95.438,540.843,538.696,0.0
51748.0,STARLINK-3501,PAYLOAD,2023-10-16 08:17:48,15.08853146,0.0001356,53.2156,278.6923,92.6696,267.4451,0.00027193,4.044e-05,0.0,0 STARLINK-3501,1 51748U 22016AL  23289.34569805  .00004044  00000-0  27193-3 0  9997,2 51748  53.2156 278.6923 0001356  92.6696 267.4451 15.08853146 92628,6917.84,95.437,540.643,538.767,0.0
51748.0,STARLINK-3501,PAYLOAD,2023-10-17 08:08:36,15.0884379,0.0001436,53.2158,274.2302,83.0092,277.1063,0.00026384,3.914e-05,0.0,0 STARLINK-3501,1 51748U 22016AL  23290.33930563  .00003914  00000-0  26384-3 0  9997,2 51748  53.2158 274.2302 0001436  83.0092 277.1063 15.08843790 92773,6917.869,95.437,540.727,538.74,0.0
51748.0,STARLINK-3501,PAYLOAD,2023-10-17 16:05:31,15.0884168,0.0001327,53.2155,272.7441,91.4819,268.6325,0.00011607,1.56e-05,0.0,0 STARLINK-3501,1 51748U 22016AL  23290.67050574  .00001560  00000-0  11607-3 0  9996,2 51748  53.2155 272.7441 0001327  91.4819 268.6325 15.08841680 91755,6917.875,95.437,540.658,538.822,0.0
51748.0,STARLINK-3501,PAYLOAD,2023-10-18 15:56:18,15.08846015,0.0001442,53.2153,268.2841,89.9232,270.1926,2.4082e-05,9.5e-07,0.0,0 STARLINK-3501,1 51748U 22016AL  23291.66410207  .00000095  00000-0  24082-4 0  9993,2 51748  53.2153 268.2841 0001442  89.9232 270.1926 15.08846015 92973,6917.862,95.437,540.725,538.729,0.0
51748.0,STARLINK-3501,PAYLOAD,2023-10-19 04:39:23,15.08849796,0.0001413,53.2152,265.9048,95.5699,264.5455,0.00022651,3.32e-05,0.0,0 STARLINK-3501,1 51748U 22016AL  23292.19402137  .00003320  00000-0  22651-3 0  9998,2 51748  53.2152 265.9048 0001413  95.5699 264.5455 15.08849796 91986,6917.85,95.437,540.693,538.738,0.0
51748.0,STARLINK-3501,PAYLOAD,2023-10-19 22:08:38,15.08842762,0.0001459,53.2145,262.6385,89.9847,270.1313,0.0001688,2.4e-05,0.0,0 STARLINK-3501,1 51748U 22016AL  23292.92266447  .00002400  00000-0  16880-3 0  9996,2 51748  53.2145 262.6385 0001459  89.9847 270.1313 15.08842762 92093,6917.872,95.437,540.746,538.728,0.0
51748.0,STARLINK-3501,PAYLOAD,2023-10-20 04:30:10,15.08849357,0.000164,53.2163,261.4448,106.1119,254.0054,0.00012759,1.744e-05,0.0,0 STARLINK-3501,1 51748U 22016AL  23293.18762024  .00001744  00000-0  12759-3 0  9998,2 51748  53.2163 261.4448 0001640 106.1119 254.0054 15.08849357 93200,6917.852,95.437,540.851,538.582,0.0
51748.0,STARLINK-3501,PAYLOAD,2023-10-20 07:40:56,15.08851948,0.0001703,53.2165,260.8495,106.0731,254.0449,0.00017064,2.43e-05,0.0,0 STARLINK-3501,1 51748U 22016AL  23293.32009866  .00002430  00000-0  17064-3 0  9999,2 51748  53.2165 260.8495 0001703 106.0731 254.0449 15.08851948 92156,6917.844,95.437,540.887,538.531,0.0
51748.0,STARLINK-3501,PAYLOAD,2023-10-21 02:45:35,15.08834319,0.0001599,53.2156,257.2798,107.5635,252.5532,4.0566e-05,3.58e-06,0.0,0 STARLINK-3501,1 51748U 22016AL  23294.11499105  .00000358  00000-0  40566-4 0  9997,2 51748  53.2156 257.2798 0001599 107.5635 252.5532 15.08834319 93345,6917.898,95.438,540.869,538.657,0.0
51748.0,STARLINK-3501,PAYLOAD,2023-10-21 07:31:44,15.08835624,0.000162,53.2152,256.3891,99.2592,260.8583,6.1197e-05,6.86e-06,0.0,0 STARLINK-3501,1 51748U 22016AL  23294.31371107  .00000686  00000-0  61197-4 0  9997,2 51748  53.2152 256.3891 0001620  99.2592 260.8583 15.08835624 92302,6917.894,95.438,540.879,538.638,0.0
51748.0,STARLINK-3501,PAYLOAD,2023-10-21 21:50:12,15.08848958,0.0001508,53.2159,253.713,104.8802,255.2357,0.00033574,5.061e-05,0.0,0 STARLINK-3501,1 51748U 22016AL  23294.90986579  .00005061  00000-0  33574-3 0  9996,2 51748  53.2159 253.7130 0001508 104.8802 255.2357 15.08848958 92398,6917.853,95.437,540.761,538.675,0.0
51748.0,STARLINK-3501,PAYLOAD,2023-10-22 04:11:44,15.08868078,0.0001372,53.2155,252.524,85.4459,274.669,0.00098207,0.00015388,0.0,0 STARLINK-3501,1 51748U 22016AL  23295.17482292  .00015388  00000-0  98207-3 0  9996,2 51748  53.2155 252.5240 0001372  85.4459 274.6690 15.08868078 93508,6917.795,95.436,540.609,538.71,0.0
51748.0,STARLINK-3501,PAYLOAD,2023-10-22 13:44:03,15.08841444,0.0002516,53.2162,250.7383,97.8654,262.2623,-0.00030234,-5.097e-05,0.0,0 STARLINK-3501,1 51748U 22016AL  23295.57226778 -.00005097  00000-0 -30234-3 0  9999,2 51748  53.2162 250.7383 0002516  97.8654 262.2623 15.08841444 92493,6917.876,95.437,541.482,538.0,0.0
51748.0,STARLINK-3501,PAYLOAD,2023-10-23 04:02:32,15.0883257,0.000156,53.2161,248.0664,112.0742,248.0416,-0.00015618,-2.772e-05,0.0,0 STARLINK-3501,1 51748U 22016AL  23296.16842888 -.00002772  00000-0 -15618-3 0  9997,2 51748  53.2161 248.0664 0001560 112.0742 248.0416 15.08832570 92582,6917.903,95.438,540.847,538.689,0.0
51748.0,STARLINK-3501,PAYLOAD,2023-10-24 03:53:19,15.08835765,0.0001608,53.2163,243.6064,115.0024,245.1135,0.00044789,6.847e-05,0.0,0 STARLINK-3501,1 51748U 22016AL  23297.16203692  .00006847  00000-0  44789-3 0  9998,2 51748  53.2163 243.6064 0001608 115.0024 245.1135 15.08835765 93809,6917.893,95.438,540.871,538.646,0.0
51748.0,STARLINK-3501,PAYLOAD,2023-10-24 07:04:06,15.0884011,0.0001434,53.2156,243.0096,106.5309,253.5841,0.00049333,7.572e-05,0.0,0 STARLINK-3501,1 51748U 22016AL  23297.29451618  .00007572  00000-0  49333-3 0  9991,2 51748  53.2156 243.0096 0001434 106.5309 253.5841 15.08840110 92758,6917.88,95.438,540.737,538.753,0.0
51748.0,STARLINK-3501,PAYLOAD,2023-10-25 05:19:29,15.08849087,0.0001379,53.2152,238.8458,104.7155,255.399,0.00043094,6.579e-05,0.0,0 STARLINK-3501,1 51748U 22016AL  23298.22187459  .00006579  00000-0  43094-3 0  9998,2 51748  53.2152 238.8458 0001379 104.7155 255.3990 15.08849087 93966,6917.853,95.437,540.672,538.764,0.0
51748.0,STARLINK-3501,PAYLOAD,2023-10-26 01:59:30,15.0884712,0.0001359,53.215,234.9795,106.3944,253.7198,0.00019196,2.769e-05,0.0,0 STARLINK-3501,1 51748U 22016AL  23299.08299316  .00002769  00000-0  19196-3 0  9992,2 51748  53.2150 234.9795 0001359 106.3944 253.7198 15.08847120 94090,6917.859,95.437,540.664,538.783,0.0
51748.0,STARLINK-3501,PAYLOAD,2023-10-26 05:10:16,15.08851405,0.0001367,53.2151,234.3846,104.3048,255.8096,0.00025799,3.822e-05,0.0,0 STARLINK-3501,1 51748U 22016AL  23299.21547153  .00003822  00000-0  25799-3 0  9999,2 51748  53.2151 234.3846 0001367 104.3048 255.8096 15.08851405 93049,6917.846,95.437,540.656,538.765,0.0
